H1 CPF 01  gfz 2021 09 02 12  7452 terrasarx 
H2 0702601  6201 31698    2021 09 02 12 59 42 2021 09 07 00 00 42   120 1 1  0 0 0
H9
10 0 59461   6462.000000  0    3014363.162   4930621.173  -3758099.589
10 0 59461   6582.000000  0    2891016.388   4371607.767  -4478713.290
10 0 59461   6702.000000  0    2706970.224   3739260.552  -5120889.210
10 0 59461   6822.000000  0    2464297.869   3045689.779  -5673474.497
10 0 59461   6942.000000  0    2166300.751   2303994.216  -6126899.137
10 0 59461   7062.000000  0    1817461.742   1528009.647  -6473330.645
10 0 59461   7182.000000  0    1423376.429    732050.508  -6706797.153
10 0 59461   7302.000000  0     990663.452    -69351.040  -6823280.687
10 0 59461   7422.000000  0     526853.247   -861705.935  -6820779.356
10 0 59461   7542.000000  0      40258.900  -1630824.257  -6699336.245
10 0 59461   7662.000000  0    -460168.475  -2363061.668  -6461038.352
10 0 59461   7782.000000  0    -965000.161  -3045556.463  -6109986.441
10 0 59461   7902.000000  0   -1464503.031  -3666453.326  -5652231.310
10 0 59461   8022.000000  0   -1948822.436  -4215108.772  -5095679.975
10 0 59461   8142.000000  0   -2408173.550  -4682277.901  -4449971.479
10 0 59461   8262.000000  0   -2833037.844  -5060277.431  -3726320.497
10 0 59461   8382.000000  0   -3214359.643  -5343120.245  -2937331.161
10 0 59461   8502.000000  0   -3543738.982  -5526619.597  -2096784.060
10 0 59461   8622.000000  0   -3813616.959  -5608459.877  -1219398.338
10 0 59461   8742.000000  0   -4017448.145  -5588231.090   -320572.252
10 0 59461   8862.000000  0   -4149854.791  -5467425.159    583892.384
10 0 59461   8982.000000  0   -4206759.202  -5249393.812   1478075.784
10 0 59461   9102.000000  0   -4185490.405  -4939268.067   2346230.006
10 0 59461   9222.000000  0   -4084861.691  -4543841.269   3173065.015
10 0 59461   9342.000000  0   -3905218.095  -4071420.056   3944024.978
10 0 59461   9462.000000  0   -3648452.250  -3531646.499   4645549.986
10 0 59461   9582.000000  0   -3317988.039  -2935295.254   5265316.374
10 0 59461   9702.000000  0   -2918733.848  -2294052.968   5792451.182
10 0 59461   9822.000000  0   -2457006.435  -1620285.411   6217719.297
10 0 59461   9942.000000  0   -1940427.488   -926795.638   6533681.395
10 0 59461  10062.000000  0   -1377793.084   -226576.860   6734818.788
10 0 59461  10182.000000  0    -778920.861    467431.253   6817621.356
10 0 59461  10302.000000  0    -154479.130   1142580.065   6780645.104
10 0 59461  10422.000000  0     484202.858   1786742.115   6624536.283
10 0 59461  10542.000000  0    1125340.127   2388529.019   6352020.724
10 0 59461  10662.000000  0    1756908.624   2937492.542   5967858.542
10 0 59461  10782.000000  0    2366869.877   3424307.387   5478766.781
10 0 59461  10902.000000  0    2943401.517   3840933.740   4893308.913
10 0 59461  11022.000000  0    3475129.383   4180754.728   4221749.537
10 0 59461  11142.000000  0    3951353.597   4438685.330   3475879.143
10 0 59461  11262.000000  0    4362269.179   4611254.775   2668811.592
10 0 59461  11382.000000  0    4699173.323   4696654.578   1814749.969
10 0 59461  11502.000000  0    4954650.372   4694753.822    928733.777
10 0 59461  11622.000000  0    5122737.303   4607080.421     26367.718
10 0 59461  11742.000000  0    5199058.430   4436767.205   -876463.198
10 0 59461  11862.000000  0    5180927.497   4188465.170  -1763881.729
10 0 59461  11982.000000  0    5067416.846   3868226.780  -2620304.982
10 0 59461  12102.000000  0    4859391.064   3483362.099  -3430723.761
10 0 59461  12222.000000  0    4559504.056   3042272.687  -4180968.455
10 0 59461  12342.000000  0    4172160.442   2554266.933  -4857956.646
10 0 59461  12462.000000  0    3703443.462   2029360.750  -5449916.587
10 0 59461  12582.000000  0    3161011.706   1478070.251  -5946583.918
10 0 59461  12702.000000  0    2553966.539    911200.990  -6339369.705
10 0 59461  12822.000000  0    1892694.145    339637.576  -6621496.974
10 0 59461  12942.000000  0    1188686.987   -225861.571  -6788106.233
10 0 59461  13062.000000  0     454345.470   -774862.715  -6836332.041
10 0 59461  13182.000000  0    -297237.967  -1297444.901  -6765345.385
10 0 59461  13302.000000  0   -1052505.991  -1784373.819  -6576365.677
10 0 59461  13422.000000  0   -1797675.116  -2227261.274  -6272643.193
10 0 59461  13542.000000  0   -2518981.784  -2618707.920  -5859408.702
10 0 59461  13662.000000  0   -3202931.465  -2952426.198  -5343792.901
10 0 59461  13782.000000  0   -3836549.961  -3223343.796  -4734715.883
10 0 59461  13902.000000  0   -4407631.731  -3427684.300  -4042743.528
10 0 59461  14022.000000  0   -4904978.989  -3563022.498  -3279914.118
10 0 59461  14142.000000  0   -5318627.964  -3628313.932  -2459536.588
10 0 59461  14262.000000  0   -5640056.410  -3623897.052  -1595962.063
10 0 59461  14382.000000  0   -5862366.386  -3551467.068   -704332.991
10 0 59461  14502.000000  0   -5980438.109  -3414022.089    199685.663
10 0 59461  14622.000000  0   -5991050.520  -3215782.388   1100187.838
10 0 59461  14742.000000  0   -5892964.133  -2962084.319   1981315.978
10 0 59461  14862.000000  0   -5686962.068  -2659250.366   2827549.899
10 0 59461  14982.000000  0   -5375850.975  -2314440.847   3623987.454
10 0 59461  15102.000000  0   -4964421.154  -1935490.055   4356614.440
10 0 59461  15222.000000  0   -4459365.302  -1530729.928   5012554.081
10 0 59461  15342.000000  0   -3869161.867  -1108808.762   5580291.968
10 0 59461  15462.000000  0   -3203925.780   -678508.025   6049875.973
10 0 59461  15582.000000  0   -2475227.479   -248559.715   6413087.412
10 0 59461  15702.000000  0   -1695884.202    172530.375   6663578.497
10 0 59461  15822.000000  0    -879730.437    576648.738   6796976.129
10 0 59461  15942.000000  0     -41371.250    956228.904   6810953.409
10 0 59461  16062.000000  0     804078.610   1304392.216   6705267.447
10 0 59461  16182.000000  0    1641266.265   1615072.576   6481763.483
10 0 59461  16302.000000  0    2454878.606   1883122.334   6144344.209
10 0 59461  16422.000000  0    3229922.098   2104397.882   5698906.529
10 0 59461  16542.000000  0    3952001.829   2275824.305   5153244.534
10 0 59461  16662.000000  0    4607592.215   2395437.693   4516918.821
10 0 59461  16782.000000  0    5184296.123   2462405.311   3801095.822
10 0 59461  16902.000000  0    5671090.130   2477021.592   3018354.980
10 0 59461  17022.000000  0    6058542.185   2440678.895   2182466.012
10 0 59461  17142.000000  0    6339002.785   2355816.346   1308145.848
10 0 59461  17262.000000  0    6506763.382   2225845.331    410793.399
10 0 59461  17382.000000  0    6558175.855   2055054.403   -493790.013
10 0 59461  17502.000000  0    6491729.021   1848495.921  -1389688.516
10 0 59461  17622.000000  0    6308083.409   1611857.178  -2261158.151
10 0 59461  17742.000000  0    6010064.774   1351319.661  -3092911.219
10 0 59461  17862.000000  0    5602611.508   1073409.337  -3870389.587
10 0 59461  17982.000000  0    5092680.936    784842.883  -4580020.652
10 0 59461  18102.000000  0    4489117.212    492373.995  -5209450.894
10 0 59461  18222.000000  0    3802486.627    202643.015  -5747753.489
10 0 59461  18342.000000  0    3044883.700    -77966.390  -6185608.739
10 0 59461  18462.000000  0    2229711.154   -343461.136  -6515454.975
10 0 59461  18582.000000  0    1371440.365   -588360.972  -6731606.944
10 0 59461  18702.000000  0     485356.361   -807806.898  -6830344.920
10 0 59461  18822.000000  0    -412711.443   -997653.507  -6809971.434
10 0 59461  18942.000000  0   -1306665.142  -1154544.429  -6670836.403
10 0 59461  19062.000000  0   -2180420.272  -1275970.283  -6415332.494
10 0 59461  19182.000000  0   -3018189.042  -1360307.993  -6047857.353
10 0 59461  19302.000000  0   -3804759.220  -1406841.238  -5574746.088
10 0 59461  19422.000000  0   -4525769.676  -1415762.193  -5004174.263
10 0 59461  19542.000000  0   -5167975.619  -1388153.535  -4346027.630
10 0 59461  19662.000000  0   -5719497.794  -1325951.219  -3611741.855
10 0 59461  19782.000000  0   -6170052.234  -1231888.566  -2814112.864
10 0 59461  19902.000000  0   -6511153.820  -1109422.208  -1967079.046
10 0 59461  20022.000000  0   -6736288.246   -962641.386  -1085479.516
10 0 59461  20142.000000  0   -6841048.507   -796162.631   -184791.873
10 0 59461  20262.000000  0   -6823229.975   -615010.870    719145.764
10 0 59461  20382.000000  0   -6682881.685   -424491.762   1610420.618
10 0 59461  20502.000000  0   -6422312.688   -230058.384   2473334.540
10 0 59461  20622.000000  0   -6046052.475    -37174.792   3292689.419
10 0 59461  20742.000000  0   -5560766.226    148819.759   4054062.570
10 0 59461  20862.000000  0   -4975127.493    322841.886   4744065.225
10 0 59461  20982.000000  0   -4299652.642    480187.325   5350578.881
10 0 59461  21102.000000  0   -3546502.459    616644.200   5862965.864
10 0 59461  21222.000000  0   -2729254.367    728592.827   6272252.510
10 0 59461  21342.000000  0   -1862650.419    813090.033   6571281.060
10 0 59461  21462.000000  0    -962325.792    867937.731   6754829.157
10 0 59461  21582.000000  0     -44524.229    891733.329   6819694.240
10 0 59461  21702.000000  0     874194.529    883901.257   6764745.279
10 0 59461  21822.000000  0    1777252.167    844705.776   6590941.280
10 0 59461  21942.000000  0    2648349.757    775244.538   6301315.787
10 0 59461  22062.000000  0    3471761.953    677422.782   5900928.141
10 0 59461  22182.000000  0    4232623.476    553908.706   5396780.145
10 0 59461  22302.000000  0    4917201.237    408070.695   4797699.605
10 0 59461  22422.000000  0    5513148.963    243896.575   4114192.440
10 0 59461  22542.000000  0    6009739.798     65898.285   3358262.845
10 0 59461  22662.000000  0    6398070.079   -120996.408   2543203.507
10 0 59461  22782.000000  0    6671228.178   -311564.240   1683359.808
10 0 59461  22902.000000  0    6824425.947   -500416.011    793873.981
99
